#dP2019 10 10  0  0  0.00000000      96 __u+U IGS08 FIT  IAC
## 2074 345600.00000000   900.00000000 58766 0.0000000000000
+  113   C02C03C04C05C06C07C08C09C10C11C12C13C14C16C19C20C21
+        C22C23C24C25C26C27C28C29C32C33C34C35C36C37E01E02E03
+        E04E05E07E08E09E11E12E13E14E15E18E19E21E24E25E26E27
+        E30E31E33E36G01G02G03G05G06G07G08G09G10G11G12G13G14
+        G15G16G17G18G19G20G21G22G23G24G25G26G27G28G29G30G31
+        G32J01J02J03J07R01R02R03R05R07R08R09R11R12R13R14R15
+        R16R17R18R19R20R21R22R23R24R26R27  0  0  0  0  0  0
++        12 13 13 12  8  8  8  8  8  7  7  7  7  8  7  7  7
++         7  7  8  8  8  7  7  7  7  8  8  8  8  8  4  4  4
++         4  4  4  4  4  4  4  4  4  4  5  4  4  4  4  4  4
++         4  4  4  4  3  3  3  3  3  3  3  3  3  3  3  3  3
++         3  3  3  3  3  3  3  3  3  0  3  3  3  3  3  3  3
++         3  8  8  8 13  6  5  5  5  5  5  5  5  5  6  5  5
++         6  5  5  6  6  5  5  5  6  7  8  0  0  0  0  0  0
%c M  cc GPS ccc cccc cccc cccc cccc ccccc ccccc ccccc ccccc
%c cc cc ccc ccc cccc cccc cccc cccc ccccc ccccc ccccc ccccc
%f  1.2500000  1.025000000  0.00000000000  0.000000000000000
%f  0.0000000  0.000000000  0.00000000000  0.000000000000000
%i    0    0    0    0      0      0      0      0         0
%i    0    0    0    0      0      0      0      0         0
/* INFORMATION & ANALYSIS CENTER (IAC)            FINAL DATA
/* S/V CLOCKS ARE ALIGNED TO GNSS TIME                      
/* G:C1WC2W R:C1PC2P E:C1XC5X C:C2IC6I J:C1CC2S             
/* PCV:IGS14_2070 OL/AL:FES2004  NONE     YN ORB:CoN CLK:CoN
*  2019 10 10 19  0  0.00000000
PC02   4414.001958  41935.936784   -818.750362    266.566083
PC03 -14801.697770  39455.263323     38.005369    265.909987
PC04 -39584.245944  14510.824920    477.602583   -391.517469
PC05  21820.549972  36037.500699  -1077.517365     83.133741
PC06  -7025.802345  29851.835636 -28416.405031    368.286883
PC07 -20385.428308  23389.971341  28531.860610   -186.056664
PC08 -21309.695634  36588.852643    138.679679    -14.280048
PC09   5057.546093  37903.999342 -17147.124318     30.429863
PC10  -4400.201077  26092.938706  32969.363042   -256.704338
PC11 -14330.431234   6770.426462  23031.640258     64.372151
PC12 -11530.338379 -22275.183664  12199.693478    307.527289
PC13 -10992.720413  38413.084439 -13845.672533   -849.917527
PC14 -23857.806559   1683.901927 -14309.621716     87.543343
PC16  -3136.254052  32347.364842 -26717.877810   -889.504114
PC19  17467.230678  -8392.043964  20102.943281    215.090398
PC20  26626.350267   4997.512177   6767.098016   -157.523380
PC21 -20157.142141 -15849.762148  10995.975404    262.717104
PC22  -1957.487737 -17116.667799  21944.696546   -207.214314
PC23  -7893.476220  21097.903609  16482.340097   -912.454838
PC24 -22667.494223   3550.942039 -15892.343325   -885.308913
PC25 -21141.829693  18215.655271    666.253127   -375.596841
PC26 -11161.058973 -11643.256372 -22771.623958    418.236884
PC27  11426.956387  22499.920016 -11913.240881    204.536953
PC28    -65.193772  27367.980324   5499.009346    198.926170
PC29  10847.954220 -16650.912485 -19593.945579    130.245923
PC32  20300.188775  15701.532232 -10962.874083   -899.915139
PC33 -17468.381930   8459.288667 -20045.432288   -458.059931
PC34 -16385.842925  -3839.984083  22259.095018   -143.533346
PC35   -786.526697 -27347.173807  -5566.365190   -430.173262
PC36  21649.278005 -17610.210954   -460.443328   -957.680949
PC37  10377.852340  12328.637138  22810.469627   -591.443667
PE01  24554.615416   4304.185400  15972.504679   -707.810534
PE02 -24602.534547  -4239.993131 -15899.322772     84.406875
PE03 -23867.305139 -15406.761043  -8291.153417   -220.334079
PE04  19892.585073  -2071.247253  21823.590949   -382.656389
PE05 -13893.213249 -24042.035346  10246.093971   -441.216721
PE07  -4135.793415  18570.965397 -22676.336054   -280.895057
PE08 -19687.099365   2289.536734 -21982.216752   6279.658768
PE09   3877.413340 -18518.781637  22761.149279   6289.413190
PE11  10056.863101 -27464.136760  -4582.741784   5558.488887
PE12  17226.955899 -12417.356125 -20623.168759   6156.432590
PE13  -9997.013035  27459.846168   4735.323547    393.990675
PE14   7375.299176 -23263.586690 -19596.281452   -751.723944
PE15 -17070.348970  12851.644275  20492.283718    892.114260
PE18   3955.449498  24489.036206   7030.312064   -846.164788
PE19  23458.404425  16875.979985   6409.442950     -3.498571
PE21   6614.395229  15100.972858  24591.111841   -559.540716
PE24  15226.744826 -17050.737780 -18797.978422   5826.908164
PE25  -6506.202403 -15125.389788 -24583.814425   1651.828451
PE26   2956.094667  25971.207679 -13902.818308   4009.335847
PE27 -15269.763880  17085.479672  18748.751307    369.673885
PE30 -28166.754372   8899.580173   1947.447936   4477.900552
PE31  28133.423149  -9017.568681  -1889.278937   -469.438578
PE33  14146.388573   9329.551807 -24266.197870   -470.963733
PE36  -2960.972087 -25993.414351  13842.817602    651.365564
PG01 -14048.167139  22330.611425   -650.249143   -157.976001
PG02  18162.504953  -8151.290062 -16899.351626   -323.122457
PG03 -11221.203899  13384.189352 -20042.254616    -20.761118
PG05  25826.112607  -3428.100891   5551.787256     -2.201067
PG06  12827.223986   7493.081354 -21975.442863    -85.943532
PG07  -2066.876281  21969.940195  14706.516531   -124.316817
PG08 -10614.280555  11402.378940  21516.183230     -9.461912
PG09   5989.561277  24382.677017  -8698.463802    -53.216397
PG10 -18492.870159 -11553.376011  15376.614313    -88.690607
PG11  -8677.512849  23975.942641   7449.639403   -482.076149
PG12  16190.501409 -10485.538870 -18396.692212    195.399482
PG13  15321.237512  -1249.801232  21550.261224    -39.603014
PG14 -17096.788882 -13040.577633 -15385.812610    -56.832535
PG15   9710.324199 -13258.389168  20516.034274   -280.848173
PG16 -26443.386826   -898.435197   4051.607030    -82.046291
PG17  14699.838206  20705.974805  -7506.081650    141.732887
PG18 -16857.215790  18850.950500   7444.548470     92.075453
PG19  16373.279777  15409.194786 -14415.728745   -255.557451
PG20  -9080.515784 -14434.991379  20295.962568    527.160103
PG21  -2867.635869 -20519.344557  17515.894216   -104.566733
PG22 -18339.337452  11714.183368 -14945.843297   -762.769386
PG23  -3120.647689  19849.744802 -16828.197008   -162.182675
PG24      0.000000      0.000000      0.000000 999999.999999
PG25    482.615720 -15145.506715 -22026.379598    -15.009678
PG26 -25511.312855  -4857.146813  -6051.791847     58.509351
PG27 -16610.060406  -1993.691307  20591.053824    -83.277430
PG28  17549.745706  13045.910863  15604.547934    759.498435
PG29  -2887.459861 -24214.935526 -10526.514566     74.851606
PG30   7367.718099  15382.868661  20348.671508    -58.764505
PG31 -14604.031600  -5441.715118 -21560.001131      4.563173
PG32 -16321.601731 -19575.146712  -7641.596508     86.839468
PJ01 -27628.510217  16283.222990 -22802.686360   -340.134023
PJ02 -30279.565599  28563.315630  11643.113525     -5.524047
PJ03 -25985.802126  24016.847972  27982.873570     -3.591562
PJ07 -25383.257293  33674.749138    -59.407071     -0.171659
PR01 -16423.890481 -16001.407546  11155.840062     50.981038
PR02 -22148.774434  -8527.921255  -9388.251222    392.226913
PR03 -13234.401919   3850.980636 -21440.056660      2.922435
PR05  17875.663741  15887.192528  -8837.840181     37.271726
PR07  12726.399218  -4298.356876  21705.306310    -27.837200
PR08  -3179.680537 -13847.408977  21234.290971     15.147735
PR09  22228.890868  -5809.654153  11176.163312     95.061075
PR11   8468.685485 -14942.228715 -18857.567814    -82.214789
PR12  -8267.024328  -7780.100316 -22809.231444     69.082674
PR13 -21172.988799   4404.432768 -13529.975126    -29.460647
PR14 -21375.891406  13441.808953   3570.954004     43.859646
PR15  -9319.852287  14944.993795  18478.422831    104.328448
PR16   8623.002324   7711.177785  22709.485863      2.738319
PR17  -9072.628450  14718.724905  18781.112617    267.187669
PR18  -2886.854679  24927.694675   4455.902885     10.446219
PR19   4199.882425  22028.513523 -12170.139460    -58.183350
PR20  10014.226417   4681.323231 -22979.441501   -392.955902
PR21   8839.764968 -15330.373259 -18356.206899    -77.868735
PR22   1646.078942 -25475.140369  -1432.187547   -179.408088
PR23  -6880.467550 -17891.938541  16814.855450    259.402706
PR24 -10338.933154  -2220.939466  23186.635180   -185.574818
PR26   9635.447668   8306.162946 -22105.255004      0.154684
PR27 -13878.266779  15244.249638  15107.174695     91.250056
EOF
